stk.v.4.3 

BEGIN Ephemeris 
 
NumberOfEphemerisPoints		146 
ScenarioEpoch	    3 Sep 2020 20:27:23.169616163 
InterpolationMethod		Lagrange 
InterpolationOrder		5 
CentralBody				Earth 
CoordinateSystem			TEME 
CoordinateSystemEpoch	  3 Sep 2020 20:27:23.169616163 
DistanceUnit			Kilometers 
 
EphemerisTimePosVel 
 
       0.00000000   -1154.58197991    7043.73809498       0.03324777 -0.461607218 -0.093779923  7.460619529
 END Ephemeris 
